{
  "type": "FeatureCollection",
  "features": [
    {
      "type": "Feature",
      "properties": {
        "norad_id": 29961,
        "name": "FENGYUN 1C DEB",
        "group": "fengyun-1c-debris",
        "lat": -24.525558799669724,
        "lon": -110.29911566453143,
        "alt_km": 785.5545131851286,
        "timestamp": "2025-12-23T22:42:33.257157+00:00",
        "meta_object_name": "FENGYUN 1C DEB",
        "meta_object_id": "1999-025KK",
        "meta_epoch": "2025-12-23T04:18:15.210144",
        "meta_mean_motion": 14.26224194,
        "meta_eccentricity": 0.00738455,
        "meta_inclination": 98.9483,
        "meta_ra_of_asc_node": 244.7952,
        "meta_arg_of_pericenter": 274.3842,
        "meta_mean_anomaly": 84.8902,
        "meta_ephemeris_type": 0,
        "meta_classification_type": "U",
        "meta_norad_cat_id": 29961,
        "meta_element_set_no": 999,
        "meta_rev_at_epoch": 98458,
        "meta_bstar": 0.00017804913,
        "meta_mean_motion_dot": 3.92e-06,
        "meta_mean_motion_ddot": 0,
        "tle_line1": "1 29961U 99025KK  25357.17934271  .00000392  00000+0  17805-3 0  9995",
        "tle_line2": "2 29961  98.9483 244.7952 0073845 274.3842  84.8902 14.26224194984580"
      },
      "geometry": {
        "type": "Point",
        "coordinates": [
          -110.29911566453143,
          -24.525558799669724
        ]
      }
    },
    {
      "type": "Feature",
      "properties": {
        "norad_id": 29962,
        "name": "FENGYUN 1C DEB",
        "group": "fengyun-1c-debris",
        "lat": 78.69229869514977,
        "lon": -123.6941044274402,
        "alt_km": 864.1764820056496,
        "timestamp": "2025-12-23T22:42:33.257167+00:00",
        "meta_object_name": "FENGYUN 1C DEB",
        "meta_object_id": "1999-025KL",
        "meta_epoch": "2025-12-23T00:08:59.354592",
        "meta_mean_motion": 14.0716421,
        "meta_eccentricity": 0.01101687,
        "meta_inclination": 98.7683,
        "meta_ra_of_asc_node": 4.8737,
        "meta_arg_of_pericenter": 192.178,
        "meta_mean_anomaly": 187.1578,
        "meta_ephemeris_type": 0,
        "meta_classification_type": "U",
        "meta_norad_cat_id": 29962,
        "meta_element_set_no": 999,
        "meta_rev_at_epoch": 97142,
        "meta_bstar": 6.9759436e-05,
        "meta_mean_motion_dot": 8.1e-07,
        "meta_mean_motion_ddot": 0,
        "tle_line1": "1 29962U 99025KL  25357.00624253  .00000081  00000+0  69759-4 0  9995",
        "tle_line2": "2 29962  98.7683   4.8737 0110168 192.1780 187.1578 14.07164210971421"
      },
      "geometry": {
        "type": "Point",
        "coordinates": [
          -123.6941044274402,
          78.69229869514977
        ]
      }
    },
    {
      "type": "Feature",
      "properties": {
        "norad_id": 29963,
        "name": "FENGYUN 1C DEB",
        "group": "fengyun-1c-debris",
        "lat": 73.1154573083663,
        "lon": 93.74489422445698,
        "alt_km": 821.7265852016499,
        "timestamp": "2025-12-23T22:42:33.257177+00:00",
        "meta_object_name": "FENGYUN 1C DEB",
        "meta_object_id": "1999-025KM",
        "meta_epoch": "2025-12-22T23:17:30.470784",
        "meta_mean_motion": 14.2949413,
        "meta_eccentricity": 0.0051006,
        "meta_inclination": 98.9986,
        "meta_ra_of_asc_node": 241.2668,
        "meta_arg_of_pericenter": 272.3655,
        "meta_mean_anomaly": 213.6611,
        "meta_ephemeris_type": 0,
        "meta_classification_type": "U",
        "meta_norad_cat_id": 29963,
        "meta_element_set_no": 999,
        "meta_rev_at_epoch": 98289,
        "meta_bstar": 0.0006155016,
        "meta_mean_motion_dot": 1.547e-05,
        "meta_mean_motion_ddot": 0,
        "tle_line1": "1 29963U 99025KM  25356.97049156  .00001547  00000+0  61550-3 0  9992",
        "tle_line2": "2 29963  98.9986 241.2668 0051006 272.3655 213.6611 14.29494130982894"
      },
      "geometry": {
        "type": "Point",
        "coordinates": [
          93.74489422445698,
          73.1154573083663
        ]
      }
    },
    {
      "type": "Feature",
      "properties": {
        "norad_id": 29964,
        "name": "FENGYUN 1C DEB",
        "group": "fengyun-1c-debris",
        "lat": 1.953259642883853,
        "lon": -160.7302061058578,
        "alt_km": 939.7523776322614,
        "timestamp": "2025-12-23T22:42:33.257188+00:00",
        "meta_object_name": "FENGYUN 1C DEB",
        "meta_object_id": "1999-025KN",
        "meta_epoch": "2025-12-23T03:52:08.702976",
        "meta_mean_motion": 14.02766201,
        "meta_eccentricity": 0.01308465,
        "meta_inclination": 98.3702,
        "meta_ra_of_asc_node": 198.8355,
        "meta_arg_of_pericenter": 239.8798,
        "meta_mean_anomaly": 118.9347,
        "meta_ephemeris_type": 0,
        "meta_classification_type": "U",
        "meta_norad_cat_id": 29964,
        "meta_element_set_no": 999,
        "meta_rev_at_epoch": 96463,
        "meta_bstar": 0.0006385791,
        "meta_mean_motion_dot": 1.025e-05,
        "meta_mean_motion_ddot": 0,
        "tle_line1": "1 29964U 99025KN  25357.16121184  .00001025  00000+0  63858-3 0  9991",
        "tle_line2": "2 29964  98.3702 198.8355 0130846 239.8798 118.9347 14.02766201964638"
      },
      "geometry": {
        "type": "Point",
        "coordinates": [
          -160.7302061058578,
          1.953259642883853
        ]
      }
    },
    {
      "type": "Feature",
      "properties": {
        "norad_id": 29965,
        "name": "FENGYUN 1C DEB",
        "group": "fengyun-1c-debris",
        "lat": -11.28766436970064,
        "lon": 170.46934301256397,
        "alt_km": 1007.8286768036769,
        "timestamp": "2025-12-23T22:42:33.257198+00:00",
        "meta_object_name": "FENGYUN 1C DEB",
        "meta_object_id": "1999-025KP",
        "meta_epoch": "2025-12-22T19:08:03.274368",
        "meta_mean_motion": 13.95779421,
        "meta_eccentricity": 0.0145838,
        "meta_inclination": 98.963,
        "meta_ra_of_asc_node": 351.1565,
        "meta_arg_of_pericenter": 40.5496,
        "meta_mean_anomaly": 139.8861,
        "meta_ephemeris_type": 0,
        "meta_classification_type": "U",
        "meta_norad_cat_id": 29965,
        "meta_element_set_no": 999,
        "meta_rev_at_epoch": 96416,
        "meta_bstar": 0.00016826636,
        "meta_mean_motion_dot": 2.09e-06,
        "meta_mean_motion_ddot": 0,
        "tle_line1": "1 29965U 99025KP  25356.79726012  .00000209  00000+0  16827-3 0  9998",
        "tle_line2": "2 29965  98.9630 351.1565 0145838  40.5496 139.8861 13.95779421964161"
      },
      "geometry": {
        "type": "Point",
        "coordinates": [
          170.46934301256397,
          -11.28766436970064
        ]
      }
    },
    {
      "type": "Feature",
      "properties": {
        "norad_id": 29966,
        "name": "FENGYUN 1C DEB",
        "group": "fengyun-1c-debris",
        "lat": 16.426027890862276,
        "lon": 28.655792988681345,
        "alt_km": 830.9454685544652,
        "timestamp": "2025-12-23T22:42:33.257209+00:00",
        "meta_object_name": "FENGYUN 1C DEB",
        "meta_object_id": "1999-025KQ",
        "meta_epoch": "2025-12-22T20:40:48.623232",
        "meta_mean_motion": 14.25770084,
        "meta_eccentricity": 0.00393016,
        "meta_inclination": 99.491,
        "meta_ra_of_asc_node": 204.6557,
        "meta_arg_of_pericenter": 316.6412,
        "meta_mean_anomaly": 43.1675,
        "meta_ephemeris_type": 0,
        "meta_classification_type": "U",
        "meta_norad_cat_id": 29966,
        "meta_element_set_no": 999,
        "meta_rev_at_epoch": 98187,
        "meta_bstar": 0.00033864531,
        "meta_mean_motion_dot": 7.6e-06,
        "meta_mean_motion_ddot": 0,
        "tle_line1": "1 29966U 99025KQ  25356.86167388  .00000760  00000+0  33865-3 0  9995",
        "tle_line2": "2 29966  99.4910 204.6557 0039301 316.6412  43.1675 14.25770084981871"
      },
      "geometry": {
        "type": "Point",
        "coordinates": [
          28.655792988681345,
          16.426027890862276
        ]
      }
    },
    {
      "type": "Feature",
      "properties": {
        "norad_id": 29967,
        "name": "FENGYUN 1C DEB",
        "group": "fengyun-1c-debris",
        "lat": -69.41584807905944,
        "lon": -129.91617417690682,
        "alt_km": 765.8279596809316,
        "timestamp": "2025-12-23T22:42:33.257219+00:00",
        "meta_object_name": "FENGYUN 1C DEB",
        "meta_object_id": "1999-025KR",
        "meta_epoch": "2025-12-21T00:57:00.253728",
        "meta_mean_motion": 14.23643193,
        "meta_eccentricity": 0.00765352,
        "meta_inclination": 98.8651,
        "meta_ra_of_asc_node": 71.7104,
        "meta_arg_of_pericenter": 268.349,
        "meta_mean_anomaly": 214.5753,
        "meta_ephemeris_type": 0,
        "meta_classification_type": "U",
        "meta_norad_cat_id": 29967,
        "meta_element_set_no": 999,
        "meta_rev_at_epoch": 97340,
        "meta_bstar": 0.0010590585,
        "meta_mean_motion_dot": 2.443e-05,
        "meta_mean_motion_ddot": 0,
        "tle_line1": "1 29967U 99025KR  25355.03958627  .00002443  00000+0  10591-2 0  9998",
        "tle_line2": "2 29967  98.8651  71.7104 0076535 268.3490 214.5753 14.23643193973406"
      },
      "geometry": {
        "type": "Point",
        "coordinates": [
          -129.91617417690682,
          -69.41584807905944
        ]
      }
    }
  ]
}